<?xml version="1.0" encoding="UTF-8"?>
<ndm xmlns:xsi="http://www.w3.org/2001/XMLSchema-instance" xsi:noNamespaceSchemaLocation="https://sanaregistry.org/r/ndmxml_unqualified/ndmxml-2.0.0-master-2.0.xsd">
<omm id="CCSDS_OMM_VERS" version="2.0">
<header><CREATION_DATE/><ORIGINATOR/></header><body><segment><metadata><OBJECT_NAME>KUIPER-00018</OBJECT_NAME><OBJECT_ID>2025-088K</OBJECT_ID><CENTER_NAME>EARTH</CENTER_NAME><REF_FRAME>TEME</REF_FRAME><TIME_SYSTEM>UTC</TIME_SYSTEM><MEAN_ELEMENT_THEORY>SGP4</MEAN_ELEMENT_THEORY></metadata><data><meanElements><EPOCH>2025-11-07T00:00:02.999808</EPOCH><MEAN_MOTION>14.79878805</MEAN_MOTION><ECCENTRICITY>.00131874</ECCENTRICITY><INCLINATION>51.9017</INCLINATION><RA_OF_ASC_NODE>283.0766</RA_OF_ASC_NODE><ARG_OF_PERICENTER>46.2011</ARG_OF_PERICENTER><MEAN_ANOMALY>203.2618</MEAN_ANOMALY></meanElements><tleParameters><EPHEMERIS_TYPE>0</EPHEMERIS_TYPE><CLASSIFICATION_TYPE>U</CLASSIFICATION_TYPE><NORAD_CAT_ID>63733</NORAD_CAT_ID><ELEMENT_SET_NO>999</ELEMENT_SET_NO><REV_AT_EPOCH>305</REV_AT_EPOCH><BSTAR>.40860261E-3</BSTAR><MEAN_MOTION_DOT>.2892E-4</MEAN_MOTION_DOT><MEAN_MOTION_DDOT>0</MEAN_MOTION_DDOT></tleParameters></data></segment></body></omm>
<omm id="CCSDS_OMM_VERS" version="2.0">
<header><CREATION_DATE/><ORIGINATOR/></header><body><segment><metadata><OBJECT_NAME>KUIPER-00019</OBJECT_NAME><OBJECT_ID>2025-088L</OBJECT_ID><CENTER_NAME>EARTH</CENTER_NAME><REF_FRAME>TEME</REF_FRAME><TIME_SYSTEM>UTC</TIME_SYSTEM><MEAN_ELEMENT_THEORY>SGP4</MEAN_ELEMENT_THEORY></metadata><data><meanElements><EPOCH>2025-11-06T21:16:34.586688</EPOCH><MEAN_MOTION>14.79998409</MEAN_MOTION><ECCENTRICITY>.00100649</ECCENTRICITY><INCLINATION>51.8996</INCLINATION><RA_OF_ASC_NODE>282.1286</RA_OF_ASC_NODE><ARG_OF_PERICENTER>60.3990</ARG_OF_PERICENTER><MEAN_ANOMALY>299.7974</MEAN_ANOMALY></meanElements><tleParameters><EPHEMERIS_TYPE>0</EPHEMERIS_TYPE><CLASSIFICATION_TYPE>U</CLASSIFICATION_TYPE><NORAD_CAT_ID>63734</NORAD_CAT_ID><ELEMENT_SET_NO>999</ELEMENT_SET_NO><REV_AT_EPOCH>2932</REV_AT_EPOCH><BSTAR>.13924353E-3</BSTAR><MEAN_MOTION_DOT>.84E-5</MEAN_MOTION_DOT><MEAN_MOTION_DDOT>0</MEAN_MOTION_DDOT></tleParameters></data></segment></body></omm>
<omm id="CCSDS_OMM_VERS" version="2.0">
<header><CREATION_DATE/><ORIGINATOR/></header><body><segment><metadata><OBJECT_NAME>KUIPER-00020</OBJECT_NAME><OBJECT_ID>2025-088M</OBJECT_ID><CENTER_NAME>EARTH</CENTER_NAME><REF_FRAME>TEME</REF_FRAME><TIME_SYSTEM>UTC</TIME_SYSTEM><MEAN_ELEMENT_THEORY>SGP4</MEAN_ELEMENT_THEORY></metadata><data><meanElements><EPOCH>2025-11-06T04:58:33.986784</EPOCH><MEAN_MOTION>14.80046408</MEAN_MOTION><ECCENTRICITY>.0008756</ECCENTRICITY><INCLINATION>51.9018</INCLINATION><RA_OF_ASC_NODE>289.1094</RA_OF_ASC_NODE><ARG_OF_PERICENTER>32.2094</ARG_OF_PERICENTER><MEAN_ANOMALY>327.9402</MEAN_ANOMALY></meanElements><tleParameters><EPHEMERIS_TYPE>0</EPHEMERIS_TYPE><CLASSIFICATION_TYPE>U</CLASSIFICATION_TYPE><NORAD_CAT_ID>63735</NORAD_CAT_ID><ELEMENT_SET_NO>999</ELEMENT_SET_NO><REV_AT_EPOCH>2937</REV_AT_EPOCH><BSTAR>.71525E-3</BSTAR><MEAN_MOTION_DOT>.5251E-4</MEAN_MOTION_DOT><MEAN_MOTION_DDOT>0</MEAN_MOTION_DDOT></tleParameters></data></segment></body></omm>
<omm id="CCSDS_OMM_VERS" version="2.0">
<header><CREATION_DATE/><ORIGINATOR/></header><body><segment><metadata><OBJECT_NAME>KUIPER-00021</OBJECT_NAME><OBJECT_ID>2025-088N</OBJECT_ID><CENTER_NAME>EARTH</CENTER_NAME><REF_FRAME>TEME</REF_FRAME><TIME_SYSTEM>UTC</TIME_SYSTEM><MEAN_ELEMENT_THEORY>SGP4</MEAN_ELEMENT_THEORY></metadata><data><meanElements><EPOCH>2025-11-06T22:46:23.613024</EPOCH><MEAN_MOTION>14.79933021</MEAN_MOTION><ECCENTRICITY>.00068734</ECCENTRICITY><INCLINATION>51.9010</INCLINATION><RA_OF_ASC_NODE>286.8350</RA_OF_ASC_NODE><ARG_OF_PERICENTER>36.7713</ARG_OF_PERICENTER><MEAN_ANOMALY>323.3720</MEAN_ANOMALY></meanElements><tleParameters><EPHEMERIS_TYPE>0</EPHEMERIS_TYPE><CLASSIFICATION_TYPE>U</CLASSIFICATION_TYPE><NORAD_CAT_ID>63736</NORAD_CAT_ID><ELEMENT_SET_NO>999</ELEMENT_SET_NO><REV_AT_EPOCH>2930</REV_AT_EPOCH><BSTAR>-.7205937E-5</BSTAR><MEAN_MOTION_DOT>-.278E-5</MEAN_MOTION_DOT><MEAN_MOTION_DDOT>0</MEAN_MOTION_DDOT></tleParameters></data></segment></body></omm>
<omm id="CCSDS_OMM_VERS" version="2.0">
<header><CREATION_DATE/><ORIGINATOR/></header><body><segment><metadata><OBJECT_NAME>KUIPER-00023</OBJECT_NAME><OBJECT_ID>2025-088P</OBJECT_ID><CENTER_NAME>EARTH</CENTER_NAME><REF_FRAME>TEME</REF_FRAME><TIME_SYSTEM>UTC</TIME_SYSTEM><MEAN_ELEMENT_THEORY>SGP4</MEAN_ELEMENT_THEORY></metadata><data><meanElements><EPOCH>2025-11-06T22:44:17.386944</EPOCH><MEAN_MOTION>14.80029591</MEAN_MOTION><ECCENTRICITY>.00123853</ECCENTRICITY><INCLINATION>51.9013</INCLINATION><RA_OF_ASC_NODE>288.3048</RA_OF_ASC_NODE><ARG_OF_PERICENTER>52.6849</ARG_OF_PERICENTER><MEAN_ANOMALY>307.5240</MEAN_ANOMALY></meanElements><tleParameters><EPHEMERIS_TYPE>0</EPHEMERIS_TYPE><CLASSIFICATION_TYPE>U</CLASSIFICATION_TYPE><NORAD_CAT_ID>63737</NORAD_CAT_ID><ELEMENT_SET_NO>999</ELEMENT_SET_NO><REV_AT_EPOCH>2958</REV_AT_EPOCH><BSTAR>.60539358E-3</BSTAR><MEAN_MOTION_DOT>.441E-4</MEAN_MOTION_DOT><MEAN_MOTION_DDOT>0</MEAN_MOTION_DDOT></tleParameters></data></segment></body></omm>
<omm id="CCSDS_OMM_VERS" version="2.0">
<header><CREATION_DATE/><ORIGINATOR/></header><body><segment><metadata><OBJECT_NAME>KUIPER-00024</OBJECT_NAME><OBJECT_ID>2025-088Q</OBJECT_ID><CENTER_NAME>EARTH</CENTER_NAME><REF_FRAME>TEME</REF_FRAME><TIME_SYSTEM>UTC</TIME_SYSTEM><MEAN_ELEMENT_THEORY>SGP4</MEAN_ELEMENT_THEORY></metadata><data><meanElements><EPOCH>2025-11-06T04:56:45.191040</EPOCH><MEAN_MOTION>14.79449498</MEAN_MOTION><ECCENTRICITY>.0005153</ECCENTRICITY><INCLINATION>51.9039</INCLINATION><RA_OF_ASC_NODE>278.9964</RA_OF_ASC_NODE><ARG_OF_PERICENTER>48.7610</ARG_OF_PERICENTER><MEAN_ANOMALY>311.3795</MEAN_ANOMALY></meanElements><tleParameters><EPHEMERIS_TYPE>0</EPHEMERIS_TYPE><CLASSIFICATION_TYPE>U</CLASSIFICATION_TYPE><NORAD_CAT_ID>63738</NORAD_CAT_ID><ELEMENT_SET_NO>999</ELEMENT_SET_NO><REV_AT_EPOCH>2977</REV_AT_EPOCH><BSTAR>.63298E-3</BSTAR><MEAN_MOTION_DOT>.4553E-4</MEAN_MOTION_DOT><MEAN_MOTION_DDOT>0</MEAN_MOTION_DDOT></tleParameters></data></segment></body></omm>
<omm id="CCSDS_OMM_VERS" version="2.0">
<header><CREATION_DATE/><ORIGINATOR/></header><body><segment><metadata><OBJECT_NAME>KUIPER-00025</OBJECT_NAME><OBJECT_ID>2025-088R</OBJECT_ID><CENTER_NAME>EARTH</CENTER_NAME><REF_FRAME>TEME</REF_FRAME><TIME_SYSTEM>UTC</TIME_SYSTEM><MEAN_ELEMENT_THEORY>SGP4</MEAN_ELEMENT_THEORY></metadata><data><meanElements><EPOCH>2025-11-06T21:08:49.958592</EPOCH><MEAN_MOTION>14.80303430</MEAN_MOTION><ECCENTRICITY>.00097448</ECCENTRICITY><INCLINATION>51.9008</INCLINATION><RA_OF_ASC_NODE>284.6309</RA_OF_ASC_NODE><ARG_OF_PERICENTER>31.9476</ARG_OF_PERICENTER><MEAN_ANOMALY>328.2076</MEAN_ANOMALY></meanElements><tleParameters><EPHEMERIS_TYPE>0</EPHEMERIS_TYPE><CLASSIFICATION_TYPE>U</CLASSIFICATION_TYPE><NORAD_CAT_ID>63739</NORAD_CAT_ID><ELEMENT_SET_NO>999</ELEMENT_SET_NO><REV_AT_EPOCH>2961</REV_AT_EPOCH><BSTAR>.65151123E-3</BSTAR><MEAN_MOTION_DOT>.4794E-4</MEAN_MOTION_DOT><MEAN_MOTION_DDOT>0</MEAN_MOTION_DDOT></tleParameters></data></segment></body></omm>
<omm id="CCSDS_OMM_VERS" version="2.0">
<header><CREATION_DATE/><ORIGINATOR/></header><body><segment><metadata><OBJECT_NAME>KUIPER-00027</OBJECT_NAME><OBJECT_ID>2025-088S</OBJECT_ID><CENTER_NAME>EARTH</CENTER_NAME><REF_FRAME>TEME</REF_FRAME><TIME_SYSTEM>UTC</TIME_SYSTEM><MEAN_ELEMENT_THEORY>SGP4</MEAN_ELEMENT_THEORY></metadata><data><meanElements><EPOCH>2025-11-06T21:08:17.753856</EPOCH><MEAN_MOTION>14.79626730</MEAN_MOTION><ECCENTRICITY>.00053298</ECCENTRICITY><INCLINATION>51.9019</INCLINATION><RA_OF_ASC_NODE>278.5256</RA_OF_ASC_NODE><ARG_OF_PERICENTER>108.2215</ARG_OF_PERICENTER><MEAN_ANOMALY>251.9327</MEAN_ANOMALY></meanElements><tleParameters><EPHEMERIS_TYPE>0</EPHEMERIS_TYPE><CLASSIFICATION_TYPE>U</CLASSIFICATION_TYPE><NORAD_CAT_ID>63740</NORAD_CAT_ID><ELEMENT_SET_NO>999</ELEMENT_SET_NO><REV_AT_EPOCH>2943</REV_AT_EPOCH><BSTAR>.57179859E-3</BSTAR><MEAN_MOTION_DOT>.4109E-4</MEAN_MOTION_DOT><MEAN_MOTION_DDOT>0</MEAN_MOTION_DDOT></tleParameters></data></segment></body></omm>
<omm id="CCSDS_OMM_VERS" version="2.0">
<header><CREATION_DATE/><ORIGINATOR/></header><body><segment><metadata><OBJECT_NAME>KUIPER-00028</OBJECT_NAME><OBJECT_ID>2025-088T</OBJECT_ID><CENTER_NAME>EARTH</CENTER_NAME><REF_FRAME>TEME</REF_FRAME><TIME_SYSTEM>UTC</TIME_SYSTEM><MEAN_ELEMENT_THEORY>SGP4</MEAN_ELEMENT_THEORY></metadata><data><meanElements><EPOCH>2025-11-06T21:31:48.000576</EPOCH><MEAN_MOTION>14.79388346</MEAN_MOTION><ECCENTRICITY>.00045501</ECCENTRICITY><INCLINATION>51.9018</INCLINATION><RA_OF_ASC_NODE>276.4246</RA_OF_ASC_NODE><ARG_OF_PERICENTER>125.8657</ARG_OF_PERICENTER><MEAN_ANOMALY>234.2728</MEAN_ANOMALY></meanElements><tleParameters><EPHEMERIS_TYPE>0</EPHEMERIS_TYPE><CLASSIFICATION_TYPE>U</CLASSIFICATION_TYPE><NORAD_CAT_ID>63741</NORAD_CAT_ID><ELEMENT_SET_NO>999</ELEMENT_SET_NO><REV_AT_EPOCH>2987</REV_AT_EPOCH><BSTAR>.5843765E-3</BSTAR><MEAN_MOTION_DOT>.418E-4</MEAN_MOTION_DOT><MEAN_MOTION_DDOT>0</MEAN_MOTION_DDOT></tleParameters></data></segment></body></omm>

</ndm>
